YAOGAN-2                
1 31490U 07019A   26068.60822722  .00001104  00000+0  14435-3 0  9990
2 31490  98.2784 285.8374 0019550 233.2135 126.7283 14.82510137 12861
OMNI-L2                 
1 52771U 22057AR  26068.75199991  .00002095  00000+0  27610-3 0  9994
2 52771  97.4810 137.7671 0005273 294.5494  65.5170 14.81075230205674
